STARLINK-1626
1 16167C 20057BC  21326.14999484  .00002905  00000-0  19458-3 0  3260
2 16167  53.0528 158.0749 0001610  86.2652 239.9242 15.06403067    14
